STARLINK-33881          
1 63779U 25091E   25128.25002315 -.00858019  23001-3 -24082-2 0  9995
2 63779  43.0006 346.7306 0002066 262.8003 100.8433 15.92625849  2070
STARLINK-33846          
1 63780U 25091F   25127.91668981 -.00810896  20879-3 -22049-2 0  9998
2 63780  43.0006 348.8048 0001929 265.2385 346.2948 15.93219822  2084
STARLINK-33883          
1 63781U 25091G   25127.91668981 -.00817030  21187-3 -22100-2 0  9997
2 63781  43.0007 348.8008 0001870 259.4817 353.6320 15.93319942  2037
STARLINK-33842          
1 63782U 25091H   25127.91668981 -.00817140  21203-3 -22045-2 0  9997
2 63782  43.0006 348.7983 0001913 266.3877 347.7051 15.93369432  2123
STARLINK-33892          
1 63783U 25091J   25127.91668981 -.00817645  21249-3 -21937-2 0  9997
2 63783  43.0007 348.7941 0001921 255.4149   0.3655 15.93473839  2038
STARLINK-33933          
1 63784U 25091K   25127.91668981 -.00827942  21763-3 -22078-2 0  9997
2 63784  43.0007 348.7899 0001891 265.0150 352.5377 15.93590961  2147
STARLINK-33906          
1 63785U 25091L   25127.91668981 -.00829604  21860-3 -22027-2 0  9997
2 63785  43.0007 348.7860 0002013 266.3205 352.5917 15.93672113  1989
STARLINK-33923          
1 63786U 25091M   25127.91668981 -.00832137  22001-3 -21992-2 0  9991
2 63786  43.0008 348.7827 0002066 268.5545 351.7944 15.93759608  1989
